{
  "norad_id": 64293,
  "name": "STARLINK-34428",
  "history": [
    {
      "epoch": "2026-04-13T05:15:52.041312Z",
      "apogee_km": 574.4738005224144,
      "perigee_km": 569.6031175607177,
      "latitude_deg": 3.905309843296388e-05,
      "longitude_deg": -173.0978973278126,
      "height_km": 574.5156396462421,
      "semi_major_axis_km": 6950.175459041566,
      "eccentricity": 0.0003504,
      "inclination_deg": 70.0005,
      "raan_deg": 107.2822,
      "arg_perigee_deg": 268.8424,
      "mean_anomaly_deg": 91.2334,
      "mean_motion_rev_day": 14.98335637
    },
    {
      "epoch": "2026-04-14T10:06:17.090496Z",
      "apogee_km": 574.4396154910037,
      "perigee_km": 569.6423246489421,
      "latitude_deg": 4.2500630739889276e-05,
      "longitude_deg": 110.0829047328935,
      "height_km": 574.4504640304391,
      "semi_major_axis_km": 6950.177970069973,
      "eccentricity": 0.00034512,
      "inclination_deg": 70.0004,
      "raan_deg": 104.2518,
      "arg_perigee_deg": 270.44,
      "mean_anomaly_deg": 89.6364,
      "mean_motion_rev_day": 14.98334825
    },
    {
      "epoch": "2026-04-15T16:32:49.998912Z",
      "apogee_km": 574.4764043551422,
      "perigee_km": 569.5918240960636,
      "latitude_deg": -4.9284212772221064e-05,
      "longitude_deg": 8.996627357379511,
      "height_km": 574.3866745187718,
      "semi_major_axis_km": 6950.171114225603,
      "eccentricity": 0.0003514,
      "inclination_deg": 70.0002,
      "raan_deg": 101.0529,
      "arg_perigee_deg": 271.7691,
      "mean_anomaly_deg": 88.3065,
      "mean_motion_rev_day": 14.98337042
    },
    {
      "epoch": "2026-04-16T16:34:51.102336Z",
      "apogee_km": 574.4063662688523,
      "perigee_km": 569.6719062848206,
      "latitude_deg": 2.4792968876272444e-05,
      "longitude_deg": 4.981131983780691,
      "height_km": 574.4846452005719,
      "semi_major_axis_km": 6950.176136276837,
      "eccentricity": 0.0003406,
      "inclination_deg": 70.0004,
      "raan_deg": 98.529,
      "arg_perigee_deg": 269.5733,
      "mean_anomaly_deg": 90.5036,
      "mean_motion_rev_day": 14.98335418
    },
    {
      "epoch": "2026-04-17T23:01:24.525696Z",
      "apogee_km": 574.3806929928351,
      "perigee_km": 569.6921060175291,
      "latitude_deg": -4.8305190454838355e-05,
      "longitude_deg": -96.1070906606745,
      "height_km": 574.4727011617091,
      "semi_major_axis_km": 6950.173399505182,
      "eccentricity": 0.0003373,
      "inclination_deg": 70.0006,
      "raan_deg": 95.3303,
      "arg_perigee_deg": 269.7939,
      "mean_anomaly_deg": 90.2833,
      "mean_motion_rev_day": 14.98336303
    },
    {
      "epoch": "2026-04-18T16:38:53.409408Z",
      "apogee_km": 573.9779574151726,
      "perigee_km": 570.0914214064542,
      "latitude_deg": 3.1693337569091586e-05,
      "longitude_deg": -3.054430758837701,
      "height_km": 574.4822625154745,
      "semi_major_axis_km": 6950.171689410813,
      "eccentricity": 0.0002796,
      "inclination_deg": 70.0029,
      "raan_deg": 93.4771,
      "arg_perigee_deg": 269.4071,
      "mean_anomaly_deg": 90.6768,
      "mean_motion_rev_day": 14.98336856
    },
    {
      "epoch": "2026-04-19T05:27:57.715776Z",
      "apogee_km": 574.3642541842664,
      "perigee_km": 569.7030527338184,
      "latitude_deg": 2.1889313400454114e-05,
      "longitude_deg": 162.80671128132994,
      "height_km": 574.4604134109322,
      "semi_major_axis_km": 6950.170653459042,
      "eccentricity": 0.00033533,
      "inclination_deg": 70.0012,
      "raan_deg": 92.1326,
      "arg_perigee_deg": 270.0277,
      "mean_anomaly_deg": 90.0498,
      "mean_motion_rev_day": 14.98337191
    },
    {
      "epoch": "2026-04-20T08:42:14.589504Z",
      "apogee_km": 574.3004936763391,
      "perigee_km": 569.7586988090261,
      "latitude_deg": 2.9048186545476888e-06,
      "longitude_deg": 110.25466968398473,
      "height_km": 574.2621722936392,
      "semi_major_axis_km": 6950.166596242682,
      "eccentricity": 0.00032674,
      "inclination_deg": 70.0031,
      "raan_deg": 89.2695,
      "arg_perigee_deg": 274.9343,
      "mean_anomaly_deg": 85.1443,
      "mean_motion_rev_day": 14.98338503
    },
    {
      "epoch": "2026-04-21T15:08:47.599008Z",
      "apogee_km": 573.9458422057241,
      "perigee_km": 570.124637508251,
      "latitude_deg": -4.0904786544905345e-06,
      "longitude_deg": 9.167995331946859,
      "height_km": 574.1963912711009,
      "semi_major_axis_km": 6950.172239856987,
      "eccentricity": 0.0002749,
      "inclination_deg": 70.0035,
      "raan_deg": 86.0706,
      "arg_perigee_deg": 278.0102,
      "mean_anomaly_deg": 82.0745,
      "mean_motion_rev_day": 14.98336678
    },
    {
      "epoch": "2026-04-22T15:10:48.110592Z",
      "apogee_km": 574.1276385537321,
      "perigee_km": 569.9186215789641,
      "latitude_deg": 4.11346592929925e-05,
      "longitude_deg": 5.15745783438957,
      "height_km": 574.5626568481913,
      "semi_major_axis_km": 6950.160130066348,
      "eccentricity": 0.0003028,
      "inclination_deg": 70.0013,
      "raan_deg": 83.5492,
      "arg_perigee_deg": 266.9512,
      "mean_anomaly_deg": 93.1301,
      "mean_motion_rev_day": 14.98340594
    },
    {
      "epoch": "2026-04-23T03:59:53.065824Z",
      "apogee_km": 574.054973917494,
      "perigee_km": 570.0818195004122,
      "latitude_deg": 2.5358042172126827e-05,
      "longitude_deg": 171.0139858089897,
      "height_km": 574.568696335938,
      "semi_major_axis_km": 6950.205396708953,
      "eccentricity": 0.00028583,
      "inclination_deg": 70.0024,
      "raan_deg": 82.2028,
      "arg_perigee_deg": 267.8995,
      "mean_anomaly_deg": 92.1837,
      "mean_motion_rev_day": 14.98325956
    },
    {
      "epoch": "2026-04-24T07:14:10.489056Z",
      "apogee_km": 574.2699067680105,
      "perigee_km": 569.8454128475778,
      "latitude_deg": -4.4626379700567763e-05,
      "longitude_deg": 118.45972990434333,
      "height_km": 574.5542740164474,
      "semi_major_axis_km": 6950.194659807794,
      "eccentricity": 0.0003183,
      "inclination_deg": 70.0011,
      "raan_deg": 79.3398,
      "arg_perigee_deg": 268.2155,
      "mean_anomaly_deg": 91.8639,
      "mean_motion_rev_day": 14.98329428
    },
    {
      "epoch": "2026-04-25T07:16:11.659008Z",
      "apogee_km": 574.1960720356637,
      "perigee_km": 569.8772341276381,
      "latitude_deg": -1.0406130808017814e-05,
      "longitude_deg": 114.44363956858096,
      "height_km": 574.51658930385,
      "semi_major_axis_km": 6950.173653081651,
      "eccentricity": 0.0003107,
      "inclination_deg": 70.0014,
      "raan_deg": 76.8156,
      "arg_perigee_deg": 268.6132,
      "mean_anomaly_deg": 91.4671,
      "mean_motion_rev_day": 14.98336221
    },
    {
      "epoch": "2026-04-26T20:07:16.530528Z",
      "apogee_km": 574.0588677480009,
      "perigee_km": 569.9700936319114,
      "latitude_deg": 6.086643720175047e-05,
      "longitude_deg": -83.71176350727437,
      "height_km": 574.5377949716349,
      "semi_major_axis_km": 6950.151480689956,
      "eccentricity": 0.00029415,
      "inclination_deg": 70.0016,
      "raan_deg": 72.9439,
      "arg_perigee_deg": 267.3146,
      "mean_anomaly_deg": 92.7677,
      "mean_motion_rev_day": 14.98343391
    },
    {
      "epoch": "2026-04-27T13:44:45.021120Z",
      "apogee_km": 573.9565043232515,
      "perigee_km": 570.0991628406136,
      "latitude_deg": -2.6191958853067357e-05,
      "longitude_deg": 9.343078931873833,
      "height_km": 574.3781717108715,
      "semi_major_axis_km": 6950.164833581933,
      "eccentricity": 0.0002775,
      "inclination_deg": 70.0017,
      "raan_deg": 71.0913,
      "arg_perigee_deg": 272.2884,
      "mean_anomaly_deg": 87.7957,
      "mean_motion_rev_day": 14.98339073
    },
    {
      "epoch": "2026-04-28T20:11:18.466080Z",
      "apogee_km": 573.7524417230779,
      "perigee_km": 570.3357327006042,
      "latitude_deg": 1.4028056761104753e-05,
      "longitude_deg": -91.74429368983768,
      "height_km": 574.3694624986688,
      "semi_major_axis_km": 6950.18108721184,
      "eccentricity": 0.0002458,
      "inclination_deg": 70.0033,
      "raan_deg": 67.8935,
      "arg_perigee_deg": 273.4143,
      "mean_anomaly_deg": 86.6735,
      "mean_motion_rev_day": 14.98333817
    },
    {
      "epoch": "2026-04-29T20:13:19.502112Z",
      "apogee_km": 574.040714534829,
      "perigee_km": 570.0443613005264,
      "latitude_deg": -5.828635942653418e-05,
      "longitude_deg": -95.76016208248691,
      "height_km": 574.4951479907746,
      "semi_major_axis_km": 6950.179537917677,
      "eccentricity": 0.0002875,
      "inclination_deg": 70.0023,
      "raan_deg": 65.369,
      "arg_perigee_deg": 269.2802,
      "mean_anomaly_deg": 90.8027,
      "mean_motion_rev_day": 14.98334318
    },
    {
      "epoch": "2026-04-30T13:50:48.133536Z",
      "apogee_km": 574.0590036019803,
      "perigee_km": 570.0162260320349,
      "latitude_deg": 1.9475351822034473e-05,
      "longitude_deg": -2.7049491848763427,
      "height_km": 574.4916419228307,
      "semi_major_axis_km": 6950.174614817008,
      "eccentricity": 0.00029084,
      "inclination_deg": 70.0025,
      "raan_deg": 63.5173,
      "arg_perigee_deg": 269.2495,
      "mean_anomaly_deg": 90.8331,
      "mean_motion_rev_day": 14.9833591
    },
    {
      "epoch": "2026-05-02T10:42:33.649056Z",
      "apogee_km": 574.0877782703174,
      "perigee_km": 569.9579932661927,
      "latitude_deg": 3.8429953797992566e-05,
      "longitude_deg": 37.80016385011148,
      "height_km": 574.4366282207885,
      "semi_major_axis_km": 6950.159885768255,
      "eccentricity": 0.0002971,
      "inclination_deg": 70.0026,
      "raan_deg": 58.8045,
      "arg_perigee_deg": 270.385,
      "mean_anomaly_deg": 89.6969,
      "mean_motion_rev_day": 14.98340673
    }
  ]
}